spkid,full_name,pdes,class,first_obs,last_obs,n_obs_used,h,e,a,q,i,om,w,ma,ad,n,tp,dist,dist_min,dist_max,v_rel,v_inf,PHA_prediction
2000433,   433 Eros (A898 PA),433,AMO,1893-10-29,2021-05-13,9130,10.43,0.2227,1.458,1.133,10.83,304.3,178.9,246.9,1.78,0.5597,2459802.57,0.182463884248595,0.182463741490261,0.18246402700921,5.97491362207991,5.97246910733982,0
2000887,   887 Alinda (A918 AA),887,AMO,1918-02-03,2021-07-31,2624,13.87,0.5705,2.473,1.062,9.39,110.43,350.49,86.61,3.88,0.2534,2459258.73,0.166324917020541,0.166320623549088,0.166329210493903,11.2689478680592,11.2675261971809,0
2001221,  1221 Amor (1932 EA1),1221,AMO,1932-03-12,2021-12-05,573,17.39,0.4358,1.919,1.082,11.88,171.32,26.64,261.04,2.75,0.3708,2459867.34,0.1405275725091,0.140527049890256,0.140528095127999,7.56478381276661,7.56227697484295,0
2001566,  1566 Icarus (1949 MA),1566,APO,1949-07-01,2021-08-11,1078,16.35,0.8269,1.078,0.187,22.8,87.96,31.44,0.33,1.97,0.8805,2459600.12,0.0435362752863562,0.0435291197371299,0.0435434320140142,28.1697860002923,28.1676133276949,0
2001620,  1620 Geographos (1951 RA),1620,APO,1951-09-14,2022-01-01,4724,15.29,0.3354,1.246,0.828,13.34,337.18,276.95,300.49,1.66,0.7089,2459684.44,0.19002355933502,0.190022512648252,0.190024606021864,16.6942636321636,16.6934236915789,0
2001627,  1627 Ivar (1929 SH),1627,AMO,1929-09-25,2022-01-01,7483,12.67,0.3967,1.863,1.124,8.45,133.12,167.8,129.03,2.6,0.3875,2459267.54,0.140738429470631,0.140738364889043,0.140738494052235,6.97130289290948,6.96858663927786,0
2001685,  1685 Toro (1948 OA),1685,APO,1948-07-17,2021-08-04,3641,14.34,0.436,1.367,0.771,9.38,274.24,127.21,300.06,1.96,0.6164,2459697.75,0.169169553516906,0.169169340579766,0.169169766454363,15.6456899496431,15.6446832279971,0
2001862,  1862 Apollo (1932 HA),1862,APO,1930-12-13,2022-01-02,2099,16.1,0.56,1.471,0.647,6.35,35.57,286.04,60.2,2.29,0.5527,2459491.58,0.13551606652165,0.135464496006162,0.135567638143202,21.1507063106352,21.1497766889652,0
2001863,  1863 Antinous (1948 EA),1863,APO,1948-03-05,2021-11-27,1065,15.4,0.606,2.259,0.89,18.4,346.42,268.09,244.01,3.63,0.2902,2460000.13,0.193127306161502,0.193126534126711,0.193128078210422,18.0439431903045,18.0431785689467,0
2001865,  1865 Cerberus (1971 UA),1865,APO,1971-10-26,2021-09-23,2011,16.73,0.467,1.08,0.576,16.1,212.9,325.27,170.21,1.58,0.8782,2459406.68,0.171688791627667,0.17168776799061,0.171689815307001,13.9943433532711,13.9932343442056,0
2001866,  1866 Sisyphus (1972 XA),1866,APO,1955-01-26,2021-08-22,5142,12.44,0.5384,1.893,0.874,41.21,63.47,293.08,331.15,2.91,0.3783,2459676.76,0.115812403521634,0.115811701662017,0.115813105409908,26.022405824616,26.0215216924029,0
2001915,  1915 Quetzalcoatl (1953 EA),1915,AMO,1953-03-09,2004-10-09,51,18.97,0.5706,2.544,1.092,20.4,162.93,347.81,41.39,4.0,0.2429,2459430.12,0.133943929293696,0.133895390697298,0.133992470842082,13.0147151656298,13.0131866138385,0
2001917,  1917 Cuyo (1968 AA),1917,AMO,1954-05-06,2022-01-01,2406,14.32,0.5055,2.15,1.063,23.96,188.29,194.51,82.28,3.24,0.3127,2459337.34,0.104389327834642,0.104386594583288,0.104392061099352,14.4168396892476,14.4150691202496,0
2001943,  1943 Anteros (1973 EC),1943,AMO,1973-03-10,2021-12-16,4483,15.65,0.256,1.43,1.064,8.71,246.31,338.38,173.88,1.8,0.5761,2459298.7,0.0960094158543673,0.0960064218267841,0.0960124098865838,5.46842148419734,5.46334412119596,0
2001981,  1981 Midas (1973 EA),1981,APO,1973-03-06,2021-10-20,1077,15.22,0.6501,1.776,0.622,39.83,356.86,267.83,202.53,2.93,0.4163,2459978.78,0.0723278829452761,0.0723275520111311,0.0723282138794745,26.8464117542523,26.8450395098871,0
2002061,  2061 Anza (1960 UA),2061,AMO,1960-10-22,2021-06-12,1014,16.36,0.5361,2.264,1.05,3.8,207.37,157.03,354.15,3.48,0.2893,2459620.71,0.179398425047218,0.17939600895046,0.179400841144914,10.5614792799918,10.5600729154903,0
2002062,  2062 Aten (1976 AA),2062,ATE,1955-12-17,2019-11-10,1024,17.1,0.1828,0.9669,0.79,18.93,108.54,148.06,21.47,1.14,1.037,2459579.79,0.125658233997066,0.125657279543226,0.125659188526307,10.3651782168757,10.363132302308,0
2002063,  2063 Bacchus (1977 HB),2063,APO,1977-04-24,2021-12-02,799,17.28,0.3494,1.078,0.701,9.43,33.07,55.38,82.02,1.45,0.8805,2459507.35,0.110578990311145,0.110578903506302,0.110579077117108,11.8081297505113,11.8060889706925,0
2002100,  2100 Ra-Shalom (1978 RA),2100,ATE,1975-10-03,2021-12-02,2022,16.24,0.4366,0.832,0.469,15.75,170.79,356.07,230.94,1.2,1.299,2459699.88,0.171711685777616,0.171711539007995,0.171711832702295,11.895399669949,11.8940951303059,0
2002101,  2101 Adonis (1936 CA),2101,APO,1936-02-21,2020-06-09,119,18.64,0.7642,1.874,0.442,1.32,349.49,43.6,206.63,3.31,0.3842,2459999.68,0.15356377228375,0.153560812586092,0.153566731981409,20.1701580044461,20.1692977566952,0
2002102,  2102 Tantalus (1975 YA),2102,APO,1975-12-30,2021-09-22,1387,16.0,0.2993,1.29,0.904,64.0,94.36,61.53,125.59,1.68,0.6727,2459413.8,0.179930970701618,0.179929375540359,0.179932565864901,32.617382881706,32.6169288770103,0
2002135,  2135 Aristaeus (1977 HA),2135,APO,1977-04-17,2020-05-30,61,18.02,0.5032,1.599,0.795,23.07,191.13,290.99,75.15,2.4,0.4872,2459446.26,0.0546311307155378,0.0545612866713453,0.054700976583907,18.7602267035855,18.7576267584687,0
2002201,  2201 Oljato (1947 XC),2201,APO,1931-12-03,2021-09-16,1120,15.25,0.713,2.175,0.624,2.52,74.99,98.23,27.61,3.72,0.3074,2459510.68,0.153832699864483,0.15383043474767,0.15383496498175,15.8528571960662,15.8517645711152,0
2002202,  2202 Pele (1972 RA),2202,AMO,1972-09-07,2020-06-22,289,17.11,0.5125,2.291,1.117,8.74,169.93,217.91,71.73,3.47,0.2842,2459348.12,0.14518467387886,0.145184290375912,0.145185057381982,6.65119902155592,6.64843919523754,0
2002212,  2212 Hephaistos (1978 SB),2212,APO,1978-09-27,2022-01-02,3076,13.33,0.8374,2.16,0.351,11.54,27.51,209.41,235.31,3.97,0.3106,2460001.98,0.197689671356887,0.197687099757136,0.197692243081271,31.826979980872,31.8265564980136,0
2002329,  2329 Orthos (1976 WA),2329,APO,1976-05-31,2021-12-13,1702,14.5,0.6541,2.409,0.833,24.48,169.28,146.06,62.51,3.98,0.2636,2459363.37,0.106162976398024,0.106159988537329,0.106165964609074,19.0922611912295,19.0909465814587,0
2002340,  2340 Hathor (1976 UA),2340,ATE,1976-10-25,2019-01-24,454,20.2,0.4499,0.8437,0.464,5.86,211.31,40.08,221.79,1.22,1.272,2459709.18,0.197121164514762,0.179310021628235,0.215671916431196,18.2781761806013,18.2774366519108,0
2003102,  3102 Krok (1981 QA),3102,AMO,1981-08-21,2021-03-15,1373,16.15,0.4495,2.151,1.184,8.44,172.05,154.8,289.24,3.12,0.3125,2459826.93,0.196608685035617,0.196607933270904,0.196609436803002,6.2053414244304,6.20315708351291,0
2003122,  3122 Florence (1981 ET3),3122,AMO,1979-03-09,2021-07-01,5047,14.04,0.4233,1.769,1.02,22.15,336.06,27.86,301.78,2.52,0.419,2459739.45,0.155835075203964,0.155823517982302,0.155846634597841,12.9911485739172,12.9898323748062,0
2003200,  3200 Phaethon (1983 TB),3200,APO,1983-10-27,2021-10-22,5090,14.32,0.8898,1.271,0.14,22.26,265.22,322.17,281.5,2.4,0.6875,2459714.68,0.0198228016290917,0.0198171398046961,0.0198284645458619,34.2346025373311,34.2306760252496,0
2003360,  3360 Syrinx (1981 VA),3360,APO,1981-11-04,2021-01-11,547,15.94,0.7459,2.466,0.627,21.15,242.52,63.52,155.26,4.31,0.2545,2458990.33,0.16316696336589,0.163164284111116,0.163169642981515,26.0542720272563,26.0536452598465,0
2003361,  3361 Orpheus (1982 HR),3361,APO,1982-04-24,2021-11-25,1149,19.24,0.3231,1.211,0.819,2.66,188.69,302.36,4.38,1.6,0.74,2459594.58,0.120659459586454,0.120656498618193,0.120662420556177,12.1777472569744,12.1759337619715,0
2003362,  3362 Khufu (1984 QA),3362,ATE,1984-08-30,2004-11-27,262,18.3,0.4685,0.9895,0.526,9.92,152.43,55.05,78.6,1.45,1.001,2459522.0,0.152811736469779,0.152793072568012,0.152830426248575,16.376837839134,16.3757731085844,0
2003671,  3671 Dionysus (1984 KD),3671,APO,1984-05-27,2021-01-10,733,16.48,0.5413,2.199,1.009,13.53,82.08,204.29,189.37,3.39,0.3022,2460165.05,0.027997158481037,0.0279966280826376,0.0279976888850972,11.0422542234741,11.0336321792483,0
2003752,  3752 Camillo (1985 PA),3752,APO,1976-01-28,2020-12-04,1783,15.23,0.3016,1.413,0.987,55.57,147.96,312.23,142.32,1.84,0.5865,2459357.85,0.0924104484926507,0.0924099366857964,0.0924109603461089,29.6350594195636,29.6340864648963,0
2003757,  3757 Anagolay (1982 XB),3757,APO,1982-12-14,2019-09-19,173,18.9,0.4458,1.835,1.017,3.87,74.95,17.21,257.16,2.65,0.3966,2459859.84,0.111769754029989,0.111766475693064,0.11177303236776,8.54927758055655,8.54648870275581,0
2003838,  3838 Epona (1986 WA),3838,APO,1986-11-30,2021-12-31,764,15.58,0.7024,1.505,0.448,29.2,235.48,49.72,51.88,2.56,0.5339,2459503.32,0.197952925650164,0.197951845809858,0.197954005497322,29.8296143252416,29.8291630868125,0
2003908,  3908 Nyx (1980 PA),3908,AMO,1980-08-06,2021-02-16,1934,17.35,0.4591,1.928,1.043,2.19,261.22,126.6,157.45,2.81,0.3682,2459172.88,0.0587092600571103,0.0587084164739638,0.0587101036809078,5.5590736897084,5.55090368002265,0
2003988,  3988 Huma (1986 LA),3988,AMO,1986-06-04,2021-12-03,546,17.8,0.3166,1.545,1.055,10.77,229.8,86.93,162.86,2.03,0.5134,2459283.3,0.197839263369046,0.197838290611598,0.197840236185894,7.23394128942435,7.2320792846606,0
2004015,  4015 Wilson-Harrington (1979 VA),4015,APO,1949-11-19,2021-05-09,997,16.02,0.6317,2.625,0.967,2.8,266.78,95.44,310.01,4.28,0.2318,2459816.17,0.107817944871226,0.107816335580357,0.107819554165841,11.929773367268,11.9277016674638,0
2004034,  4034 Vishnu (1986 PA),4034,APO,1986-08-02,2021-09-11,565,18.41,0.444,1.06,0.589,11.17,157.91,296.72,76.71,1.53,0.9037,2459515.62,0.171738130731648,0.171736112497935,0.171740148966463,10.0688690035806,10.0673280194403,0
2004179,  4179 Toutatis (1989 AC),4179,APO,1934-02-10,2021-05-09,6583,15.24,0.6243,2.545,0.956,0.45,125.22,277.97,96.92,4.13,0.2428,2459201.3,0.0198486847524602,0.019848634266537,0.0198487352383912,8.4063881554918,8.39040419987471,0
